{
  "type": "FeatureCollection",
  "features": [
    {
      "type": "Feature",
      "properties": {
        "norad_id": 38755,
        "name": "SPOT 6",
        "group": "resource",
        "lat": 64.33452403733882,
        "lon": -103.74882796345082,
        "alt_km": 690.8601602839208,
        "timestamp": "2025-12-20T05:41:49.675135+00:00",
        "meta_object_name": "SPOT 6",
        "meta_object_id": "2012-047A",
        "meta_epoch": "2025-12-19T22:35:19.921056",
        "meta_mean_motion": 14.58537372,
        "meta_eccentricity": 0.00013267,
        "meta_inclination": 98.1571,
        "meta_ra_of_asc_node": 58.5935,
        "meta_arg_of_pericenter": 79.0893,
        "meta_mean_anomaly": 281.0455,
        "meta_ephemeris_type": 0,
        "meta_classification_type": "U",
        "meta_norad_cat_id": 38755,
        "meta_element_set_no": 999,
        "meta_rev_at_epoch": 70692,
        "meta_bstar": 1.1264146e-05,
        "meta_mean_motion_dot": 7e-08,
        "meta_mean_motion_ddot": 0,
        "tle_line1": "1 38755U 12047A   25353.94120279  .00000007  00000+0  11264-4 0  9998",
        "tle_line2": "2 38755  98.1571  58.5935 0001326  79.0893 281.0455 14.58537372706928"
      },
      "geometry": {
        "type": "Point",
        "coordinates": [
          -103.74882796345082,
          64.33452403733882
        ]
      }
    },
    {
      "type": "Feature",
      "properties": {
        "norad_id": 39019,
        "name": "PLEIADES 1B",
        "group": "resource",
        "lat": 12.150935083669058,
        "lon": 64.99641363745988,
        "alt_km": 698.8686314959687,
        "timestamp": "2025-12-20T05:41:49.675145+00:00",
        "meta_object_name": "PLEIADES 1B",
        "meta_object_id": "2012-068A",
        "meta_epoch": "2025-12-19T23:03:18.939168",
        "meta_mean_motion": 14.5855826,
        "meta_eccentricity": 0.00011747,
        "meta_inclination": 98.1794,
        "meta_ra_of_asc_node": 66.4987,
        "meta_arg_of_pericenter": 86.7843,
        "meta_mean_anomaly": 273.3491,
        "meta_ephemeris_type": 0,
        "meta_classification_type": "U",
        "meta_norad_cat_id": 39019,
        "meta_element_set_no": 999,
        "meta_rev_at_epoch": 69472,
        "meta_bstar": 2.6378283e-05,
        "meta_mean_motion_dot": 7.7e-07,
        "meta_mean_motion_ddot": 0,
        "tle_line1": "1 39019U 12068A   25353.96063587  .00000077  00000+0  26378-4 0  9994",
        "tle_line2": "2 39019  98.1794  66.4987 0001174  86.7843 273.3491 14.58558260694722"
      },
      "geometry": {
        "type": "Point",
        "coordinates": [
          64.99641363745988,
          12.150935083669058
        ]
      }
    },
    {
      "type": "Feature",
      "properties": {
        "norad_id": 39030,
        "name": "GOKTURK 2",
        "group": "resource",
        "lat": -40.996988201223516,
        "lon": -157.73460062698004,
        "alt_km": 651.5256435526217,
        "timestamp": "2025-12-20T05:41:49.675155+00:00",
        "meta_object_name": "GOKTURK 2",
        "meta_object_id": "2012-073A",
        "meta_epoch": "2025-12-19T21:44:44.856672",
        "meta_mean_motion": 14.75300145,
        "meta_eccentricity": 0.00012534,
        "meta_inclination": 97.6889,
        "meta_ra_of_asc_node": 195.2069,
        "meta_arg_of_pericenter": 107.4602,
        "meta_mean_anomaly": 252.6745,
        "meta_ephemeris_type": 0,
        "meta_classification_type": "U",
        "meta_norad_cat_id": 39030,
        "meta_element_set_no": 999,
        "meta_rev_at_epoch": 69807,
        "meta_bstar": 5.8224902e-05,
        "meta_mean_motion_dot": 3.47e-06,
        "meta_mean_motion_ddot": 0,
        "tle_line1": "1 39030U 12073A   25353.90607473  .00000347  00000+0  58225-4 0  9991",
        "tle_line2": "2 39030  97.6889 195.2069 0001253 107.4602 252.6745 14.75300145698078"
      },
      "geometry": {
        "type": "Point",
        "coordinates": [
          -157.73460062698004,
          -40.996988201223516
        ]
      }
    },
    {
      "type": "Feature",
      "properties": {
        "norad_id": 39084,
        "name": "LANDSAT 8",
        "group": "resource",
        "lat": 35.892401380527076,
        "lon": -111.80552662714902,
        "alt_km": 699.6061645005111,
        "timestamp": "2025-12-20T05:41:49.675166+00:00",
        "meta_object_name": "LANDSAT 8",
        "meta_object_id": "2013-008A",
        "meta_epoch": "2025-12-19T20:48:00.328608",
        "meta_mean_motion": 14.57109366,
        "meta_eccentricity": 0.00010797,
        "meta_inclination": 98.2064,
        "meta_ra_of_asc_node": 61.8347,
        "meta_arg_of_pericenter": 90.2596,
        "meta_mean_anomaly": 269.8726,
        "meta_ephemeris_type": 0,
        "meta_classification_type": "U",
        "meta_norad_cat_id": 39084,
        "meta_element_set_no": 999,
        "meta_rev_at_epoch": 67178,
        "meta_bstar": 7.3601201e-05,
        "meta_mean_motion_dot": 2.86e-06,
        "meta_mean_motion_ddot": 0,
        "tle_line1": "1 39084U 13008A   25353.86667047  .00000286  00000+0  73601-4 0  9994",
        "tle_line2": "2 39084  98.2064  61.8347 0001079  90.2596 269.8726 14.57109366671783"
      },
      "geometry": {
        "type": "Point",
        "coordinates": [
          -111.80552662714902,
          35.892401380527076
        ]
      }
    },
    {
      "type": "Feature",
      "properties": {
        "norad_id": 39086,
        "name": "SARAL",
        "group": "resource",
        "lat": -12.979071327595284,
        "lon": -3.9173457509855614,
        "alt_km": 787.3143165827487,
        "timestamp": "2025-12-20T05:41:49.675177+00:00",
        "meta_object_name": "SARAL",
        "meta_object_id": "2013-009A",
        "meta_epoch": "2025-12-19T22:05:42.733536",
        "meta_mean_motion": 14.32759355,
        "meta_eccentricity": 0.00029576,
        "meta_inclination": 98.5502,
        "meta_ra_of_asc_node": 177.7573,
        "meta_arg_of_pericenter": 94.9707,
        "meta_mean_anomaly": 265.1814,
        "meta_ephemeris_type": 0,
        "meta_classification_type": "U",
        "meta_norad_cat_id": 39086,
        "meta_element_set_no": 999,
        "meta_rev_at_epoch": 66993,
        "meta_bstar": 4.7049626e-05,
        "meta_mean_motion_dot": 8.4e-07,
        "meta_mean_motion_ddot": 0,
        "tle_line1": "1 39086U 13009A   25353.92063349  .00000084  00000+0  47050-4 0  9994",
        "tle_line2": "2 39086  98.5502 177.7573 0002957  94.9707 265.1814 14.32759355669937"
      },
      "geometry": {
        "type": "Point",
        "coordinates": [
          -3.9173457509855614,
          -12.979071327595284
        ]
      }
    },
    {
      "type": "Feature",
      "properties": {
        "norad_id": 39150,
        "name": "GAOFEN-1",
        "group": "resource",
        "lat": 68.4651028954131,
        "lon": 44.07241303095967,
        "alt_km": 625.5145788425607,
        "timestamp": "2025-12-20T05:41:49.675187+00:00",
        "meta_object_name": "GAOFEN-1",
        "meta_object_id": "2013-018A",
        "meta_epoch": "2025-12-19T22:52:33.113856",
        "meta_mean_motion": 14.76490361,
        "meta_eccentricity": 0.00183484,
        "meta_inclination": 97.9326,
        "meta_ra_of_asc_node": 64.4853,
        "meta_arg_of_pericenter": 121.0896,
        "meta_mean_anomaly": 239.2118,
        "meta_ephemeris_type": 0,
        "meta_classification_type": "U",
        "meta_norad_cat_id": 39150,
        "meta_element_set_no": 999,
        "meta_rev_at_epoch": 68179,
        "meta_bstar": 2.6059502e-05,
        "meta_mean_motion_dot": 1.31e-06,
        "meta_mean_motion_ddot": 0,
        "tle_line1": "1 39150U 13018A   25353.95316104  .00000131  00000+0  26060-4 0  9990",
        "tle_line2": "2 39150  97.9326  64.4853 0018348 121.0896 239.2118 14.76490361681795"
      },
      "geometry": {
        "type": "Point",
        "coordinates": [
          44.07241303095967,
          68.4651028954131
        ]
      }
    },
    {
      "type": "Feature",
      "properties": {
        "norad_id": 39160,
        "name": "VNREDSAT 1",
        "group": "resource",
        "lat": -0.016141291943930505,
        "lon": -130.75232306921689,
        "alt_km": 680.4494747686222,
        "timestamp": "2025-12-20T05:41:49.675197+00:00",
        "meta_object_name": "VNREDSAT 1",
        "meta_object_id": "2013-021B",
        "meta_epoch": "2025-12-19T22:19:17.407776",
        "meta_mean_motion": 14.64932858,
        "meta_eccentricity": 0.00012272,
        "meta_inclination": 97.937,
        "meta_ra_of_asc_node": 48.9534,
        "meta_arg_of_pericenter": 80.3667,
        "meta_mean_anomaly": 279.7675,
        "meta_ephemeris_type": 0,
        "meta_classification_type": "U",
        "meta_norad_cat_id": 39160,
        "meta_element_set_no": 999,
        "meta_rev_at_epoch": 67404,
        "meta_bstar": 0.00010665235,
        "meta_mean_motion_dot": 5.25e-06,
        "meta_mean_motion_ddot": 0,
        "tle_line1": "1 39160U 13021B   25353.93006259  .00000525  00000+0  10665-3 0  9990",
        "tle_line2": "2 39160  97.9370  48.9534 0001227  80.3667 279.7675 14.64932858674045"
      },
      "geometry": {
        "type": "Point",
        "coordinates": [
          -130.75232306921689,
          -0.016141291943930505
        ]
      }
    }
  ]
}